299P/Catalina-PANSTARRS,e,10.4690,271.5805,323.6220,4.388828,0.1071966,0.28093383,40.5170,05/13.0/2025,2000,g 11.5,4.0
# From MPEC 2023-VM5
300P/Catalina,e,5.6766,95.6224,222.8802,2.696397,0.2226016,0.69205570,169.8430,05/13.0/2025,2000,g 16.0,4.0
# From MPC 89014
301P/LINEAR-NEAT,e,10.3288,351.0631,193.4358,5.751524,0.0714545,0.58620358,281.3878,05/13.0/2025,2000,g 13.0,4.0
# From MPEC 2024-YC7
302P/Lemmon-PANSTARRS,e,6.0356,121.7155,208.6258,4.267403,0.1118043,0.22936087,7.2225,05/13.0/2025,2000,g 12.5,4.0
# From MPC 92278
303P/NEAT,e,7.0162,347.9499,357.0289,5.039989,0.0871083,0.51028774,335.3559,05/13.0/2025,2000,g 13.5,4.0
# From MPEC 2022-K19
304P/Ory,e,2.6057,58.9383,335.2785,3.149711,0.1763185,0.60085255,305.4831,05/13.0/2025,2000,g 16.5,4.0
# From MPC182890
305P/Skiff,e,11.6709,240.1013,147.4077,4.636661,0.0987179,0.69409325,17.4591,05/13.0/2025,2000,g 18.0,4.0
# From MPC 92278
306P/LINEAR,e,8.3029,341.3522,0.8964,3.124475,0.1784591,0.59257906,345.6078,05/13.0/2025,2000,g 19.0,4.0
# From MPC 92278
307P/LINEAR,e,4.4346,158.1156,222.2524,5.788039,0.0707794,0.67503058,268.0414,05/13.0/2025,2000,g 15.0,4.0
# From MPEC 2022-C56
308P/Lagerkvist-Carsenty,e,4.8522,63.0992,333.7566,6.601213,0.0581124,0.36418431,212.1386,05/13.0/2025,2000,g 13.0,2.0
# From MPEC 2025-GB9
309P/LINEAR,e,17.0201,10.1386,49.9170,4.374620,0.1077193,0.61822763,44.1700,05/13.0/2025,2000,g 15.0,4.0
# From MPC182891
310P/Hill,e,13.1201,8.8836,31.5200,4.181074,0.1152848,0.42209079,65.4643,05/13.0/2025,2000,g 13.5,4.0
# From MPEC 2025-J72
311P/PANSTARRS,e,4.9712,279.1692,144.2876,2.188664,0.3043935,0.11550477,151.3174,05/13.0/2025,2000,g 17.0,4.0
# From MPEC 2024-NE4
312P/NEAT,e,19.7462,144.6368,207.6995,3.472386,0.1523218,0.42668737,257.7182,05/13.0/2025,2000,g 16.0,4.0
# From MPEC 2024-N80
313P/Gibbs,e,10.9810,105.9253,254.9825,3.163376,0.1751773,0.23448264,324.3123,05/13.0/2025,2000,g 15.0,4.0
# From MPC105243
314P/Montani,e,3.9920,267.6229,213.8631,7.249203,0.0504974,0.41854271,158.2361,05/13.0/2025,2000,g  9.5,4.0
# From MPEC 2023-J29
315P/LONEOS,e,17.7346,68.6412,65.9096,4.936322,0.0898667,0.52206445,277.5448,05/13.0/2025,2000,g 11.0,4.0
# From MPC182891
316P/LONEOS-Christensen,e,9.8756,245.8952,187.1270,4.409821,0.1064321,0.15686480,23.3792,05/13.0/2025,2000,g 13.5,4.0
# From MPEC 2020-C98
317P/WISE,e,11.9748,275.4730,334.8857,2.959575,0.1935798,0.57201346,326.9242,05/13.0/2025,2000,g 17.5,4.0
# From MPC102103
318P/McNaught-Hartley,e,17.8651,35.6032,313.3051,7.514574,0.0478462,0.67332097,166.9955,05/13.0/2025,2000,g  8.5,6.0
# From MPEC 2025-HB5
319P/Catalina-McNaught,e,15.0963,111.3645,203.5990,3.562647,0.1465700,0.66638062,167.0006,05/13.0/2025,2000,g 15.0,4.0
# From MPC 96281
320P/McNaught,e,4.9028,295.9404,0.7568,3.095923,0.1809335,0.68487980,285.6598,05/13.0/2025,2000,g 20.5,4.0
# From MPC105243
321P/SOHO,e,20.0547,165.0265,172.7404,2.422062,0.2614726,0.98100527,0.0000,10/26.5150/2023,2000,g 20.0,4.0
# From MPC102103
322P/SOHO,e,11.4494,351.3533,57.0683,2.508651,0.2480526,0.97993354,0.0000,08/21.1586/2023,2000,g 19.0,4.0
# From MPC182891
323P/SOHO,e,5.2108,323.9497,353.3246,2.440132,0.2585735,0.98344593,0.0000,03/14.2308/2025,2000,g 20.0,4.0
# From MPEC 2024-F21
323P-B/SOHO,e,5.4599,323.4629,353.9656,2.890004,0.2006118,0.98612136,0.0000,12/16.2421/2025,2000,g 26.0,4.0
# From MPEC 2024-F21
323P-C/SOHO,e,5.3374,324.1897,353.2112,2.612029,0.2334732,0.98476545,0.0000,04/07.1005/2025,2000,g 27.0,4.0
# From MPEC 2021-W31
324P/LaSagra,e,21.3992,270.5692,57.4256,3.097206,0.1808211,0.15280947,266.0116,05/13.0/2025,2000,g 13.0,4.0
# From MPEC 2024-LE0
325P/Yang-Gao,e,16.8478,256.8565,344.9199,3.549226,0.1474021,0.58730370,168.8779,05/13.0/2025,2000,g 14.0,4.0
# From MPEC 2024-LE0
326P/Hill,e,2.4737,99.7604,278.1162,4.064791,0.1202671,0.32047899,60.3140,05/13.0/2025,2000,g 13.5,4.0
# From MPEC 2024-M41
327P/VanNess,e,36.2316,173.9984,185.0411,3.563012,0.1465474,0.56253667,144.2175,05/13.0/2025,2000,g 16.0,4.0
# From MPEC 2024-YC7
328P/LONEOS-Tucker,e,17.6773,341.5570,30.6787,4.190710,0.1148875,0.55312622,33.2092,05/13.0/2025,2000,g 14.5,4.0
# From MPC101101
329P/LINEAR-Catalina,e,21.7190,87.6876,343.5999,5.182234,0.0835466,0.67888265,287.6825,05/13.0/2025,2000,g 13.5,4.0
# From MPEC 2023-J29
330P/Catalina,e,15.7397,293.0835,188.8351,6.615275,0.0579272,0.55054491,184.0468,05/13.0/2025,2000,g 12.0,4.0
# From MPEC 2024-Q20
331P/Gibbs,e,9.7407,216.7427,185.5774,3.003000,0.1893961,0.04144444,317.2923,05/13.0/2025,2000,g 12.0,4.0
# From MPEC 2016-K18
332P/Ikeya-Murakami,e,9.3857,3.7544,152.2970,3.086112,0.1817969,0.48982590,247.8799,05/13.0/2025,2000,g 18.0,4.0
# From MPEC 2016-K18
332P-A/Ikeya-Murakami,e,9.3856,152.3143,3.7380,3.086095,0.1817984,0.48983325,247.8787,05/13.0/2025,2000,g  9.0,4.0
# From MPEC 2016-EI8
332P-B/Ikeya-Murakami,e,9.3805,3.8028,152.3711,3.082329,0.1821317,0.48970701,359.9699,03/17.0/2016,2000,g 19.0,4.0
# From MPEC 2016-K18
332P-C/Ikeya-Murakami,e,9.3847,152.3056,3.7384,3.086061,0.1818014,0.48983878,247.8970,05/13.0/2025,2000,g 16.5,4.0
# From MPEC 2016-ED0
332P-D/Ikeya-Murakami,e,9.3761,3.7923,152.4393,3.081138,0.1822373,0.48977814,359.9486,03/17.0/2016,2000,g 19.0,4.0
# From MPEC 2016-ED0
332P-E/Ikeya-Murakami,e,9.3774,3.8228,152.2825,3.079877,0.1823493,0.48922008,359.9889,03/17.0/2016,2000,g 21.0,4.0
# From MPEC 2016-ED0
332P-F/Ikeya-Murakami,e,9.5293,3.4757,152.8203,3.163214,0.1751908,0.49918860,359.8501,03/17.0/2016,2000,g 21.0,4.0
# From MPEC 2016-ED0
332P-G/Ikeya-Murakami,e,9.2523,3.6955,154.4000,3.050519,0.1849880,0.49200362,359.9006,03/19.0/2016,2000,g 19.0,4.0
# From MPC100285
332P-H/Ikeya-Murakami,e,9.3852,152.3062,3.7382,3.086242,0.1817855,0.48987470,247.8098,05/13.0/2025,2000,g 19.0,4.0
# From MPEC 2016-ED0
332P-I/Ikeya-Murakami,e,9.3791,3.8048,152.3297,3.081767,0.1821815,0.48955490,359.9360,03/17.0/2016,2000,g 20.5,2.0
# From MPEC 2016-EI8
332P-J/Ikeya-Murakami,e,9.4296,3.6729,152.7712,3.115165,0.1792596,0.49429435,359.8613,03/17.0/2016,2000,g 20.5,2.0
# From MPC182891
333P/LINEAR,e,132.0223,115.7068,26.0199,4.220381,0.1136780,0.73628465,18.7230,05/13.0/2025,2000,g 15.0,4.0
# From MPEC 2023-J29
334P/NEAT,e,20.3650,90.3697,90.0651,6.824721,0.0552811,0.35192114,160.2982,05/13.0/2025,2000,g 10.5,4.0
# From MPEC 2023-M14
335P/Gibbs,e,7.2975,330.7925,162.3199,3.577265,0.1456724,0.54685015,146.3287,05/13.0/2025,2000,g 16.8,4.0
# From MPC105244
336P/McNaught,e,17.8652,298.1751,308.6722,5.035764,0.0872180,0.44589084,264.2556,05/13.0/2025,2000,g 13.5,4.0
# From MPEC 2024-A43
337P/WISE,e,16.9122,102.1967,166.0001,3.334768,0.1618473,0.48614289,169.8886,05/13.0/2025,2000,g 17.0,4.0
# From MPC182891
338P/McNaught,e,25.3764,9.7545,4.6294,3.895684,0.1281824,0.41276162,36.2342,05/13.0/2025,2000,g 12.0,4.0
# From MPC101101
339P/Gibbs,e,5.7344,27.4592,172.6749,3.698585,0.1385641,0.63578163,86.0522,05/13.0/2025,2000,g 17.0,4.0
# From MPC133426
340P/Boattini,e,2.0790,291.6594,36.0653,4.247127,0.1126059,0.27999715,347.8093,05/13.0/2025,2000,g 14.3,4.0
# From MPEC 2023-J29
341P/Gibbs,e,3.7965,29.9528,312.3614,4.284954,0.1111181,0.41506392,2.2549,05/13.0/2025,2000,g 12.5,4.0
# From MPC101101
342P/SOHO,e,11.6907,73.3104,27.6491,3.040818,0.1858739,0.98297954,0.0000,02/07.6866/2027,2000,g  9.0,4.0
# From MPEC 2024-PC5
343P/NEAT-LONEOS,e,5.5976,257.0545,137.6079,5.457929,0.0772969,0.58484882,233.4986,05/13.0/2025,2000,g 14.0,4.0
# From MPEC 2023-J29
344P/Read,e,3.4996,273.1014,140.6216,4.855119,0.0921307,0.42374833,286.0358,05/13.0/2025,2000,g 13.0,4.0
# From MPEC 2024-TP3
345P/LINEAR,e,2.7280,154.5085,196.7436,4.032014,0.1217366,0.22131278,31.0510,05/13.0/2025,2000,g 12.0,4.0
# From MPEC 2022-K19
346P/Catalina,e,22.2194,102.4580,336.0736,4.467971,0.1043611,0.50391249,313.5335,05/13.0/2025,2000,g 14.0,4.0
# From MPEC 2024-RQ6
347P/PANSTARRS,e,11.7661,260.9921,98.1044,3.600301,0.1442766,0.38693157,95.7607,05/13.0/2025,2000,g 15.0,4.0
# From MPEC 2022-ED3
348P/PANSTARRS,e,17.7425,312.9131,135.7731,3.151637,0.1761570,0.30749415,208.6590,05/13.0/2025,2000,g 14.0,4.0
# From MPEC 2024-LE0
349P/Lemmon,e,5.4891,331.7390,255.7535,3.578084,0.1456224,0.29859199,51.1192,05/13.0/2025,2000,g 14.0,4.0
# From MPEC 2025-GB9
350P/McNaught,e,7.3655,65.2954,140.0478,4.080837,0.1195584,0.09469702,323.1334,05/13.0/2025,2000,g 14.0,4.0
# From MPC105244
351P/Wiegert-PANSTARRS,e,12.7746,352.6652,283.2863,4.440566,0.1053287,0.29470072,5.0337,05/13.0/2025,2000,g 12.5,4.0
# From MPEC 2023-J29
352P/Skiff,e,21.0042,28.0485,309.3741,6.655425,0.0574038,0.61600961,165.6243,05/13.0/2025,2000,g 13.2,4.0
# From MPEC 2020-AA5
353P/McNaught,e,28.4190,121.5100,230.4862,4.170881,0.1157077,0.46972033,312.0429,05/13.0/2025,2000,g 14.5,4.0
# From MPEC 2024-EF7
354P/LINEAR,e,5.2507,320.0593,132.9324,2.290353,0.2843482,0.12444946,164.0008,05/13.0/2025,2000,g 15.5,4.0
# From MPEC 2023-CD7
355P/LINEAR-NEAT,e,11.0459,51.4249,336.2619,3.467261,0.1526596,0.50796781,62.0936,05/13.0/2025,2000,g 15.5,2.0
# From MPEC 2022-F14
356P/WISE,e,9.6418,160.7919,226.2130,4.152449,0.1164790,0.35588092,313.9545,05/13.0/2025,2000,g 14.0,4.0
# From MPC114609
357P/Hill,e,6.3127,44.5689,1.5030,4.455053,0.1048153,0.43602212,265.7058,05/13.0/2025,2000,g 15.5,4.0
# From MPEC 2024-EF7
358P/PANSTARRS,e,11.0668,85.6675,299.3405,3.145800,0.1766475,0.23947910,97.2362,05/13.0/2025,2000,g 18.0,4.0
# From MPC110086
359P/LONEOS,e,10.2618,149.7467,200.2831,4.642474,0.0985326,0.32313317,277.8807,05/13.0/2025,2000,g 13.5,4.0
# From MPEC 2025-A40
360P/WISE,e,24.1058,2.1627,354.3165,3.698701,0.1385575,0.49935275,30.6466,05/13.0/2025,2000,g 19.5,6.0
# From MPEC 2023-CD7
361P/Spacewatch,e,13.8978,203.2304,219.1290,4.933003,0.0899574,0.43953489,225.0116,05/13.0/2025,2000,g 12.0,4.0
# From MPEC 2025-GB9
363P/Lemmon,e,5.3939,146.7586,340.7609,3.574599,0.1458355,0.51855665,26.3641,05/13.0/2025,2000,g 17.5,4.0
# From MPEC 2024-M41
364P/PANSTARRS,e,11.8984,45.8546,212.7923,2.900718,0.1995013,0.71774228,145.8523,05/13.0/2025,2000,g 17.0,2.0
# From MPC111775
